start=new Date('2022-05-21T00:00:00.000Z').valueOf();
sats=[{"TLE_LINE2":"2 50803  53.2166 285.0488 0001801  49.1867 217.2933 15.08860843  1305","TLE_LINE1":"1 50803U 22001A   22140.58334491 -.00024902  00000-0 -15510-2 0  9990","OBJECT_NAME":"STARLINK-3321","MEAN_ELEMENT_THEORY":"SGP4","APOAPSIS":"540.928","SEMIMAJOR_AXIS":"6917.817","REV_AT_EPOCH":"130","COUNTRY_CODE":"US","OBJECT_TYPE":"PAYLOAD","NORAD_CAT_ID":"50803","GP_ID":"204043018","OBJECT_ID":"2022-001A","RCS_SIZE":"LARGE","LAUNCH_DATE":"2022-01-06","CLASSIFICATION_TYPE":"U","RA_OF_ASC_NODE":"285.0488","EPHEMERIS_TYPE":"0","ECCENTRICITY":"0.00018010","MEAN_MOTION_DDOT":"0.0000000000000","TIME_SYSTEM":"UTC","BSTAR":"-0.00155100000000","PERIAPSIS":"538.436","MEAN_MOTION_DOT":"-0.00024902","MEAN_ANOMALY":"217.2933","EPOCH":"2022-05-20T14:00:01.000224","MEAN_MOTION":"15.08860843","ELEMENT_SET_NO":"999","FILE":"3455160","INCLINATION":"53.2166","REF_FRAME":"TEME","ARG_OF_PERICENTER":"49.1867","CENTER_NAME":"EARTH","DECAY_DATE":null,"PERIOD":"95.436","SITE":"AFETR"},{"RCS_SIZE":"LARGE","CLASSIFICATION_TYPE":"U","LAUNCH_DATE":"2022-01-06","RA_OF_ASC_NODE":"275.0579","EPHEMERIS_TYPE":"0","ECCENTRICITY":"0.00017680","TIME_SYSTEM":"UTC","MEAN_MOTION_DDOT":"0.0000000000000","TLE_LINE2":"2 50804  53.2132 275.0579 0001768  52.4816  28.9795 15.08857732  1308","TLE_LINE1":"1 50804U 22001B   22140.58334491 -.00034760  00000-0 -21754-2 0  9991","OBJECT_NAME":"STARLINK-3323","MEAN_ELEMENT_THEORY":"SGP4","APOAPSIS":"540.914","SEMIMAJOR_AXIS":"6917.826","REV_AT_EPOCH":"130","OBJECT_TYPE":"PAYLOAD","COUNTRY_CODE":"US","GP_ID":"204041790","OBJECT_ID":"2022-001B","NORAD_CAT_ID":"50804","ELEMENT_SET_NO":"999","FILE":"3455160","REF_FRAME":"TEME","INCLINATION":"53.2132","CENTER_NAME":"EARTH","ARG_OF_PERICENTER":"52.4816","DECAY_DATE":null,"PERIOD":"95.436","SITE":"AFETR","BSTAR":"-0.00217540000000","PERIAPSIS":"538.468","MEAN_MOTION_DOT":"-0.00034760","MEAN_ANOMALY":"28.9795","EPOCH":"2022-05-20T14:00:01.000224","MEAN_MOTION":"15.08857732"},{"BSTAR":"-0.00120570000000","MEAN_ANOMALY":"55.5913","PERIAPSIS":"538.358","MEAN_MOTION_DOT":"-0.00019423","EPOCH":"2022-05-20T14:00:01.000224","MEAN_MOTION":"15.08833955","ELEMENT_SET_NO":"999","ARG_OF_PERICENTER":"45.8860","CENTER_NAME":"EARTH","FILE":"3455160","REF_FRAME":"TEME","INCLINATION":"53.2125","PERIOD":"95.438","SITE":"AFETR","DECAY_DATE":null,"TLE_LINE2":"2 50805  53.2125 275.0584 0002032  45.8860  55.5913 15.08833955  1306","TLE_LINE1":"1 50805U 22001C   22140.58334491 -.00019423  00000-0 -12057-2 0  9997","OBJECT_NAME":"STARLINK-3333","MEAN_ELEMENT_THEORY":"SGP4","APOAPSIS":"541.170","OBJECT_TYPE":"PAYLOAD","COUNTRY_CODE":"US","GP_ID":"204042040","OBJECT_ID":"2022-001C","NORAD_CAT_ID":"50805","SEMIMAJOR_AXIS":"6917.899","REV_AT_EPOCH":"130","RCS_SIZE":"LARGE","EPHEMERIS_TYPE":"0","CLASSIFICATION_TYPE":"U","LAUNCH_DATE":"2022-01-06","RA_OF_ASC_NODE":"275.0584","ECCENTRICITY":"0.00020320","TIME_SYSTEM":"UTC","MEAN_MOTION_DDOT":"0.0000000000000"},{"APOAPSIS":"541.071","MEAN_ELEMENT_THEORY":"SGP4","GP_ID":"204042792","OBJECT_ID":"2022-001D","NORAD_CAT_ID":"50806","OBJECT_TYPE":"PAYLOAD","COUNTRY_CODE":"US","SEMIMAJOR_AXIS":"6917.874","REV_AT_EPOCH":"130","TLE_LINE1":"1 50806U 22001D   22140.58334491 -.00008812  00000-0 -53620-3 0  9990","TLE_LINE2":"2 50806  53.2146 275.0624 0001925  51.1698  70.3033 15.08842131  1308","OBJECT_NAME":"STARLINK-3335","ECCENTRICITY":"0.00019250","TIME_SYSTEM":"UTC","MEAN_MOTION_DDOT":"0.0000000000000","RCS_SIZE":"LARGE","EPHEMERIS_TYPE":"0","RA_OF_ASC_NODE":"275.0624","CLASSIFICATION_TYPE":"U","LAUNCH_DATE":"2022-01-06","EPOCH":"2022-05-20T14:00:01.000224","MEAN_MOTION":"15.08842131","BSTAR":"-0.00053620000000","MEAN_ANOMALY":"70.3033","MEAN_MOTION_DOT":"-0.00008812","PERIAPSIS":"538.407","SITE":"AFETR","PERIOD":"95.437","DECAY_DATE":null,"ELEMENT_SET_NO":"999","ARG_OF_PERICENTER":"51.1698","CENTER_NAME":"EARTH","INCLINATION":"53.2146","REF_FRAME":"TEME","FILE":"3455160"},{"INCLINATION":"53.2187","REF_FRAME":"TEME","FILE":"3455160","CENTER_NAME":"EARTH","ARG_OF_PERICENTER":"39.2586","ELEMENT_SET_NO":"999","DECAY_DATE":null,"SITE":"AFETR","PERIOD":"95.436","MEAN_MOTION_DOT":"-0.00069929","PERIAPSIS":"538.318","MEAN_ANOMALY":"162.2621","BSTAR":"-0.00441520000000","MEAN_MOTION":"15.08868056","EPOCH":"2022-05-20T14:00:01.000224","RA_OF_ASC_NODE":"275.0632","CLASSIFICATION_TYPE":"U","LAUNCH_DATE":"2022-01-06","EPHEMERIS_TYPE":"0","RCS_SIZE":"LARGE","MEAN_MOTION_DDOT":"0.0000000000000","TIME_SYSTEM":"UTC","ECCENTRICITY":"0.00019390","OBJECT_NAME":"STARLINK-3353","TLE_LINE1":"1 50807U 22001E   22140.58334491 -.00069929  00000-0 -44152-2 0  9996","TLE_LINE2":"2 50807  53.2187 275.0632 0001939  39.2586 162.2621 15.08868056  1309","REV_AT_EPOCH":"130","SEMIMAJOR_AXIS":"6917.795","GP_ID":"204043518","NORAD_CAT_ID":"50807","OBJECT_ID":"2022-001E","COUNTRY_CODE":"US","OBJECT_TYPE":"PAYLOAD","APOAPSIS":"541.001","MEAN_ELEMENT_THEORY":"SGP4"},{"OBJECT_NAME":"STARLINK-3355","TLE_LINE2":"2 50808  53.2157 275.0629 0002033  35.4551 126.0851 15.08846827  1304","TLE_LINE1":"1 50808U 22001F   22140.58334491 -.00022343  00000-0 -13898-2 0  9999","REV_AT_EPOCH":"130","SEMIMAJOR_AXIS":"6917.860","OBJECT_TYPE":"PAYLOAD","COUNTRY_CODE":"US","GP_ID":"204042290","OBJECT_ID":"2022-001F","NORAD_CAT_ID":"50808","MEAN_ELEMENT_THEORY":"SGP4","APOAPSIS":"541.131","LAUNCH_DATE":"2022-01-06","CLASSIFICATION_TYPE":"U","RA_OF_ASC_NODE":"275.0629","EPHEMERIS_TYPE":"0","RCS_SIZE":"LARGE","MEAN_MOTION_DDOT":"0.0000000000000","TIME_SYSTEM":"UTC","ECCENTRICITY":"0.00020330","PERIAPSIS":"538.318","MEAN_MOTION_DOT":"-0.00022343","MEAN_ANOMALY":"126.0851","BSTAR":"-0.00138980000000","MEAN_MOTION":"15.08846827","EPOCH":"2022-05-20T14:00:01.000224","FILE":"3455160","REF_FRAME":"TEME","INCLINATION":"53.2157","ARG_OF_PERICENTER":"35.4551","CENTER_NAME":"EARTH","ELEMENT_SET_NO":"999","DECAY_DATE":null,"PERIOD":"95.437","SITE":"AFETR"},{"TLE_LINE2":"2 50809  53.2157 275.0628 0001800  43.4704  98.0066 15.08868928  1306","TLE_LINE1":"1 50809U 22001G   22140.58334491 -.00041264  00000-0 -25874-2 0  9990","OBJECT_NAME":"STARLINK-3232","MEAN_ELEMENT_THEORY":"SGP4","APOAPSIS":"540.902","SEMIMAJOR_AXIS":"6917.792","REV_AT_EPOCH":"130","OBJECT_TYPE":"PAYLOAD","COUNTRY_CODE":"US","NORAD_CAT_ID":"50809","GP_ID":"204042540","OBJECT_ID":"2022-001G","RCS_SIZE":"LARGE","LAUNCH_DATE":"2022-01-06","CLASSIFICATION_TYPE":"U","RA_OF_ASC_NODE":"275.0628","EPHEMERIS_TYPE":"0","ECCENTRICITY":"0.00018000","TIME_SYSTEM":"UTC","MEAN_MOTION_DDOT":"0.0000000000000","BSTAR":"-0.00258740000000","PERIAPSIS":"538.412","MEAN_MOTION_DOT":"-0.00041264","MEAN_ANOMALY":"98.0066","EPOCH":"2022-05-20T14:00:01.000224","MEAN_MOTION":"15.08868928","ELEMENT_SET_NO":"999","FILE":"3455160","REF_FRAME":"TEME","INCLINATION":"53.2157","ARG_OF_PERICENTER":"43.4704","CENTER_NAME":"EARTH","DECAY_DATE":null,"PERIOD":"95.436","SITE":"AFETR"},{"CENTER_NAME":"EARTH","ARG_OF_PERICENTER":"46.6360","FILE":"3455160","REF_FRAME":"TEME","INCLINATION":"53.2183","ELEMENT_SET_NO":"999","PERIOD":"95.439","SITE":"AFETR","DECAY_DATE":null,"MEAN_ANOMALY":"134.8438","PERIAPSIS":"538.396","MEAN_MOTION_DOT":"-0.00012832","BSTAR":"-0.00078995000000","MEAN_MOTION":"15.08822375","EPOCH":"2022-05-20T14:00:01.000224","EPHEMERIS_TYPE":"0","CLASSIFICATION_TYPE":"U","LAUNCH_DATE":"2022-01-06","RA_OF_ASC_NODE":"275.0659","RCS_SIZE":"LARGE","TIME_SYSTEM":"UTC","MEAN_MOTION_DDOT":"0.0000000000000","ECCENTRICITY":"0.00020280","OBJECT_NAME":"STARLINK-3348","TLE_LINE2":"2 50810  53.2183 275.0659 0002028  46.6360 134.8438 15.08822375  1305","TLE_LINE1":"1 50810U 22001H   22140.58334491 -.00012832  00000-0 -78995-3 0  9994","COUNTRY_CODE":"US","OBJECT_TYPE":"PAYLOAD","GP_ID":"204043292","NORAD_CAT_ID":"50810","OBJECT_ID":"2022-001H","REV_AT_EPOCH":"130","SEMIMAJOR_AXIS":"6917.934","MEAN_ELEMENT_THEORY":"SGP4","APOAPSIS":"541.202"},{"MEAN_ANOMALY":"187.2602","PERIAPSIS":"538.214","MEAN_MOTION_DOT":"-0.00069549","BSTAR":"-0.00439030000000","MEAN_MOTION":"15.08872500","EPOCH":"2022-05-20T14:00:01.000224","CENTER_NAME":"EARTH","ARG_OF_PERICENTER":"34.2495","FILE":"3455160","REF_FRAME":"TEME","INCLINATION":"53.2205","ELEMENT_SET_NO":"999","PERIOD":"95.435","SITE":"AFETR","DECAY_DATE":null,"OBJECT_NAME":"STARLINK-3347","TLE_LINE2":"2 50811  53.2205 275.0545 0002070  34.2495 187.2602 15.08872500  1304","TLE_LINE1":"1 50811U 22001J   22140.58334491 -.00069549  00000-0 -43903-2 0  9992","COUNTRY_CODE":"US","OBJECT_TYPE":"PAYLOAD","GP_ID":"204043019","NORAD_CAT_ID":"50811","OBJECT_ID":"2022-001J","REV_AT_EPOCH":"130","SEMIMAJOR_AXIS":"6917.781","MEAN_ELEMENT_THEORY":"SGP4","APOAPSIS":"541.078","EPHEMERIS_TYPE":"0","CLASSIFICATION_TYPE":"U","LAUNCH_DATE":"2022-01-06","RA_OF_ASC_NODE":"275.0545","RCS_SIZE":"LARGE","MEAN_MOTION_DDOT":"0.0000000000000","TIME_SYSTEM":"UTC","ECCENTRICITY":"0.00020700"},{"MEAN_ANOMALY":"7.9113","PERIAPSIS":"538.321","MEAN_MOTION_DOT":"-0.00019413","BSTAR":"-0.00120490000000","MEAN_MOTION":"15.08838949","EPOCH":"2022-05-20T14:00:01.000224","ARG_OF_PERICENTER":"48.3846","CENTER_NAME":"EARTH","FILE":"3455160","INCLINATION":"53.2136","REF_FRAME":"TEME","ELEMENT_SET_NO":"999","PERIOD":"95.438","SITE":"AFETR","DECAY_DATE":null,"OBJECT_NAME":"STARLINK-3338","TLE_LINE2":"2 50812  53.2136 275.0599 0002063  48.3846   7.9113 15.08838949  1309","TLE_LINE1":"1 50812U 22001K   22140.58334491 -.00019413  00000-0 -12049-2 0  9995","COUNTRY_CODE":"US","OBJECT_TYPE":"PAYLOAD","NORAD_CAT_ID":"50812","GP_ID":"204041791","OBJECT_ID":"2022-001K","SEMIMAJOR_AXIS":"6917.884","REV_AT_EPOCH":"130","MEAN_ELEMENT_THEORY":"SGP4","APOAPSIS":"541.176","EPHEMERIS_TYPE":"0","LAUNCH_DATE":"2022-01-06","CLASSIFICATION_TYPE":"U","RA_OF_ASC_NODE":"275.0599","RCS_SIZE":"LARGE","MEAN_MOTION_DDOT":"0.0000000000000","TIME_SYSTEM":"UTC","ECCENTRICITY":"0.00020630"}];
